ONEWEB-0029             
1 45445U 20020X   24289.86610481 -.00000254  00000+0 -75148-3 0  9995
2 45445  87.8919 142.4414 0001590  88.1487 271.9823 13.11418921222792
ONEWEB-0068             
1 45446U 20020Y   24289.61263436 -.00000236  00000+0 -70184-3 0  9998
2 45446  87.8916 142.4770 0001637  86.4140 273.7175 13.11416537222706
ONEWEB-0046             
1 45447U 20020Z   24289.53379875 -.00000220  00000+0 -65749-3 0  9999
2 45447  87.8918 142.5043 0001335  85.3213 274.8067 13.11413742222704
ONEWEB-0063             
1 45448U 20020AA  24289.86780592 -.00000156  00000+0 -47712-3 0  9996
2 45448  87.8917 142.4385 0001370  78.2147 281.9134 13.11421124222839
ONEWEB-0019             
1 45449U 20020AB  24289.30829419 -.00000340  00000+0 -99577-3 0  9999
2 45449  87.8922 142.5568 0001642  74.6195 285.5114 13.11414250222600
ONEWEB-0094             
1 45450U 20020AC  24289.51381135  .00000029  00000+0  40413-4 0  9990
2 45450  87.9084 127.2908 0001583  93.4644 266.6669 13.17650023226023
ONEWEB-0087             
1 45451U 20020AD  24289.87783757  .00000207  00000+0  54700-3 0  9997
2 45451  87.8912 142.4029 0001596  90.0993 270.0318 13.11420652222720
ONEWEB-0082             
1 45452U 20020AE  24289.34051471  .00000164  00000+0  42810-3 0  9992
2 45452  87.8918 142.5192 0001787  79.4466 280.6863 13.11420158222742
ONEWEB-0050             
1 45453U 20020AF  24289.91205499  .00008681  00000+0  86096-3 0  9993
2 45453  88.0085 357.5643 0003578  54.1668 305.9893 14.91683753249603
ONEWEB-0034             
1 45454U 20020AG  24289.89664895  .00000469  00000+0  12875-2 0  9999
2 45454  87.8917 142.4276 0001603  82.6416 277.4894 13.11415058222733
ONEWEB-0060             
1 45455U 20020AH  24289.86284596 -.00000381  00000+0 -11120-2 0  9990
2 45455  87.8922 142.4535 0001450  79.3463 280.7828 13.11414870222682
ONEWEB-0086             
1 45456U 20020AJ  24289.84576238 -.00000271  00000+0 -80104-3 0  9993
2 45456  87.8913 142.4378 0001693  96.5501 263.5819 13.11413869222744
ONEWEB-0088             
1 45457U 20020AK  24289.82372304  .00000466  00000+0  12792-2 0  9991
2 45457  87.8912 142.4024 0001478  84.6078 275.5218 13.11418320222675
ONEWEB-0102             
1 47258U 20100A   24289.77111350 -.00000496  00000+0 -14145-2 0  9996
2 47258  87.8842 112.0549 0001650  81.7503 278.3813 13.12442590184795
ONEWEB-0109             
1 47259U 20100B   24289.77922358 -.00000481  00000+0 -13722-2 0  9999
2 47259  87.8845 112.0196 0001696  82.2264 277.9057 13.12443199184620
ONEWEB-0110             
1 47260U 20100C   24289.80518535  .00000437  00000+0  11786-2 0  9990
2 47260  87.8838 112.0129 0001731  85.9009 274.2317 13.12444084184798
ONEWEB-0111             
1 47261U 20100D   24289.75975711 -.00000214  00000+0 -62919-3 0  9998
2 47261  87.8843 112.0242 0001634  83.8831 276.2484 13.12443321184625
ONEWEB-0114             
1 47262U 20100E   24289.79057671 -.00000018  00000+0 -86658-4 0  9998
2 47262  87.8840 112.0286 0001696  73.7249 286.4066 13.12443440184586
ONEWEB-0117             
1 47263U 20100F   24289.78246320 -.00000391  00000+0 -11222-2 0  9996
2 47263  87.8844 112.0106 0001605  87.3365 272.7948 13.12443635184596
ONEWEB-0118             
1 47264U 20100G   24289.73867470  .00000441  00000+0  11899-2 0  9991
2 47264  87.8843 112.0223 0001313  74.0699 286.0574 13.12441496184782
ONEWEB-0119             
1 47265U 20100H   24289.91871805 -.00000327  00000+0 -94373-3 0  9993
2 47265  87.8840 112.0249 0001659  86.1966 273.9352 13.12440891184789
ONEWEB-0120             
1 47266U 20100J   24289.78908897  .00000035  00000+0  61415-4 0  9997
2 47266  87.8846 112.0424 0001596  79.7237 280.4071 13.12443135184796
ONEWEB-0121             
1 47267U 20100K   24289.77759693 -.00000335  00000+0 -96744-3 0  9992
2 47267  87.8839 112.0292 0001752  89.1525 270.9804 13.12441258184704
ONEWEB-0122             
1 47268U 20100L   24289.77258168 -.00000415  00000+0 -11898-2 0  9999
2 47268  87.8839 112.0348 0001743  84.4710 275.6617 13.12444783184611
ONEWEB-0123             
1 47269U 20100M   24289.76786525 -.00000497  00000+0 -14173-2 0  9991
2 47269  87.8840 112.0536 0001568  84.4499 275.6808 13.12441552184750
ONEWEB-0124             
1 47270U 20100N   24289.75651628 -.00000137  00000+0 -41754-3 0  9994
2 47270  87.8838 112.0524 0001635  94.9651 265.1664 13.12442856184636
ONEWEB-0125             
1 47271U 20100P   24289.81004801  .00000444  00000+0  11984-2 0  9997
2 47271  87.8846 112.0029 0001326  94.3756 265.7524 13.12443883184703
ONEWEB-0126             
1 47272U 20100Q   24289.75895135 -.00000207  00000+0 -60996-3 0  9996
2 47272  87.8840 112.0141 0001592  81.0888 279.0421 13.12442495184765
ONEWEB-0127             
1 47273U 20100R   24289.79706605  .00000265  00000+0  70047-3 0  9994
2 47273  87.8843 112.0395 0001644  82.6412 277.4904 13.12443530184790
ONEWEB-0128             
1 47274U 20100S   24289.74355698  .00001226  00000+0  33722-2 0  9998
2 47274  87.8854 112.0610 0001756  87.5030 272.6300 13.12434726184803
ONEWEB-0129             
1 47275U 20100T   24289.79867256  .00000320  00000+0  85502-3 0  9990
2 47275  87.8844 112.0093 0002228  39.7073 320.4218 13.12446452184741
ONEWEB-0130             
1 47276U 20100U   24289.75003072  .00000152  00000+0  38815-3 0  9993
2 47276  87.8840 112.0244 0001762  83.7163 276.4166 13.12440013184702
ONEWEB-0131             
1 47277U 20100V   24289.74680206  .00000218  00000+0  57168-3 0  9998
2 47277  87.8844 112.0434 0001736  87.4338 272.6989 13.12442113184742
ONEWEB-0132             
1 47278U 20100W   24289.47101863 -.00000653  00000+0 -18510-2 0  9998
2 47278  87.8848 112.1004 0001611  95.8009 264.3303 13.12442578184609
ONEWEB-0133             
1 47279U 20100X   24289.48724993  .00000168  00000+0  43064-3 0  9997
2 47279  87.8838 112.0891 0001723  87.9388 272.1937 13.12442810184764
ONEWEB-0134             
1 47280U 20100Y   24289.76136213  .00001518  00000+0  41849-2 0  9990
2 47280  87.8844 112.0197 0001793  85.6508 274.4826 13.12433240184778
ONEWEB-0135             
1 47281U 20100Z   24289.80842749  .00000456  00000+0  12307-2 0  9991
2 47281  87.8845 112.0347 0002103  84.8386 275.2983 13.12444649184800
ONEWEB-0136             
1 47282U 20100AA  24289.75162121  .00000093  00000+0  22285-3 0  9999
2 47282  87.8842 112.0129 0002042  77.5900 282.5457 13.12442083184727
ONEWEB-0137             
1 47283U 20100AB  24289.78571142 -.00000191  00000+0 -56703-3 0  9993
2 47283  87.8838 112.0257 0001460  83.4585 276.6709 13.12444093184630
ONEWEB-0138             
1 47284U 20100AC  24289.76462557 -.00000361  00000+0 -10393-2 0  9994
2 47284  87.8840 112.0417 0001692  82.6601 277.4720 13.12442991184715
ONEWEB-0139             
1 47285U 20100AD  24289.80367841  .00000416  00000+0  11214-2 0  9992
2 47285  87.8845 112.0103 0001571  84.9236 275.2072 13.12445120184799
ONEWEB-0140             
1 47286U 20100AE  24289.75813876 -.00000114  00000+0 -35156-3 0  9990
2 47286  87.8838 112.0190 0001741  83.2775 276.8552 13.12441865184755
ONEWEB-0141             
1 47287U 20100AF  24289.80340606  .00000469  00000+0  12673-2 0  9992
2 47287  87.8842 112.0236 0001418  85.7768 274.3523 13.12445772184743
ONEWEB-0142             
1 47288U 20100AG  24289.77191343 -.00000360  00000+0 -10367-2 0  9991
2 47288  87.8838 112.0103 0001537  77.3453 282.7848 13.12443159184731
ONEWEB-0143             
1 47289U 20100AH  24289.80193289  .00000362  00000+0  97127-3 0  9997
2 47289  87.8842 112.0265 0001610  88.2709 271.8603 13.12441948184713
ONEWEB-0144             
1 47290U 20100AJ  24289.77435334 -.00000409  00000+0 -11718-2 0  9990
2 47290  87.8843 112.0146 0001701  74.8541 285.2776 13.12440892184638
ONEWEB-0145             
1 47291U 20100AK  24289.74516104  .00000254  00000+0  67196-3 0  9991
2 47291  87.8841 112.0449 0001653  82.0784 278.0532 13.12439711184828
ONEWEB-0146             
1 47292U 20100AL  24289.74191795  .00000342  00000+0  91400-3 0  9990
2 47292  87.8841 112.0302 0001701 100.9126 259.2194 13.12439494184734
ONEWEB-0147             
1 47293U 20100AM  24289.78408678 -.00000441  00000+0 -12613-2 0  9996
2 47293  87.8840 112.0114 0001916  83.0343 277.1003 13.12442837184637
ONEWEB-0115             
1 48042U 21025A   24289.83084297 -.00000230  00000+0 -66615-3 0  9997
2 48042  87.8863  81.4514 0001710  96.6286 263.5037 13.13469278173606
ONEWEB-0152             
1 48043U 21025B   24289.69115790 -.00000446  00000+0 -12560-2 0  9993
2 48043  87.8860  81.4805 0001821  92.8488 267.2849 13.13469272173541
ONEWEB-0153             
1 48044U 21025C   24289.66894870  .00000037  00000+0  67397-4 0  9998
2 48044  87.8872  81.4775 0001646  91.7332 268.3985 13.13467423173530
ONEWEB-0154             
1 48045U 21025D   24289.81811693 -.00000746  00000+0 -20790-2 0  9991
2 48045  87.8854  81.4539 0001940  97.4314 262.7036 13.13472337173512
ONEWEB-0116             
1 48046U 21025E   24289.85937475  .00000008  00000+0 -12463-4 0  9993
2 48046  87.8874  81.4204 0001703  99.3609 260.7713 13.13472974173662
ONEWEB-0150             
1 48047U 21025F   24289.68164256 -.00000154  00000+0 -45604-3 0  9999
2 48047  87.8867  81.4671 0001473  91.0662 269.0636 13.13471212173531
ONEWEB-0107             
1 48048U 21025G   24289.68322064 -.00000240  00000+0 -69095-3 0  9999
2 48048  87.8861  81.4640 0001663  78.8935 281.2381 13.13467075173512
ONEWEB-0101             
1 48049U 21025H   24289.87527368  .00000320  00000+0  83992-3 0  9994
2 48049  87.8877  81.4504 0001679  90.1839 269.9482 13.13471051173510
ONEWEB-0113             
1 48050U 21025J   24289.70068694 -.00000100  00000+0 -30873-3 0  9998
2 48050  87.8873  81.4659 0001705  96.4474 263.6849 13.13468459173575
ONEWEB-0112             
1 48051U 21025K   24289.68799134 -.00000213  00000+0 -61710-3 0  9995
2 48051  87.8860  81.4602 0001598  93.6507 266.4805 13.13468669173583
